NORAD_CAT_ID,OBJECT_NAME,OBJECT_TYPE,EPOCH,MEAN_MOTION,ECCENTRICITY,INCLINATION,RA_OF_ASC_NODE,ARG_OF_PERICENTER,MEAN_ANOMALY,BSTAR,MEAN_MOTION_DOT,MEAN_MOTION_DDOT,TLE_LINE0,TLE_LINE1,TLE_LINE2,SEMIMAJOR_AXIS,PERIOD,APOGEE,PERIGEE,DECAYED
49771.0,STARLINK-3201,PAYLOAD,2024-02-28 04:06:08,15.08839125,0.0001522,53.2157,223.4363,84.6389,275.4777,2.9249e-06,-2.41e-06,0.0,0 STARLINK-3201,1 49771U 21115AZ  24059.17092809 -.00000241  00000-0  29249-5 0  9993,2 49771  53.2157 223.4363 0001522  84.6389 275.4777 15.08839125124990,6917.883,95.438,540.801,538.695,0.0
49771.0,STARLINK-3201,PAYLOAD,2024-02-28 10:27:41,15.08834856,0.00016,53.2159,222.2479,87.6127,272.5048,0.00019291,2.783e-05,0.0,0 STARLINK-3201,1 49771U 21115AZ  24059.43589217  .00002783  00000-0  19291-3 0  9992,2 49771  53.2159 222.2479 0001600  87.6127 272.5048 15.08834856123924,6917.896,95.438,540.868,538.654,0.0
49771.0,STARLINK-3201,PAYLOAD,2024-02-28 18:24:36,15.08839288,0.0001257,53.215,220.7621,86.147,273.9666,0.00013753,1.902e-05,0.0,0 STARLINK-3201,1 49771U 21115AZ  24059.76708947  .00001902  00000-0  13753-3 0  9990,2 49771  53.2150 220.7621 0001257  86.1470 273.9666 15.08839288123970,6917.883,95.438,540.617,538.878,0.0
49771.0,STARLINK-3201,PAYLOAD,2024-02-29 10:18:27,15.08843722,0.000128,53.2152,217.7889,86.1404,273.9734,0.00019584,2.831e-05,0.0,0 STARLINK-3201,1 49771U 21115AZ  24060.42948876  .00002831  00000-0  19584-3 0  9992,2 49771  53.2152 217.7889 0001280  86.1404 273.9734 15.08843722125186,6917.869,95.437,540.619,538.849,0.0
49771.0,STARLINK-3201,PAYLOAD,2024-02-29 15:04:37,15.08847086,0.0001304,53.2158,216.8971,82.3237,277.7903,0.00018522,2.662e-05,0.0,0 STARLINK-3201,1 49771U 21115AZ  24060.62820728  .00002662  00000-0  18522-3 0  9992,2 49771  53.2158 216.8971 0001304  82.3237 277.7903 15.08847086124101,6917.859,95.437,540.626,538.822,0.0
49771.0,STARLINK-3201,PAYLOAD,2024-02-29 19:50:46,15.08853718,0.0001245,53.2151,216.0042,84.5291,275.5843,0.000343,5.177e-05,0.0,0 STARLINK-3201,1 49771U 21115AZ  24060.82692426  .00005177  00000-0  34300-3 0  9992,2 49771  53.2151 216.0042 0001245  84.5291 275.5843 15.08853718124134,6917.838,95.437,540.565,538.842,0.0
49771.0,STARLINK-3201,PAYLOAD,2024-03-01 14:55:24,15.08841903,0.0001324,53.2155,212.4364,70.5699,289.5436,0.00019842,2.872e-05,0.0,0 STARLINK-3201,1 49771U 21115AZ  24061.62181159  .00002872  00000-0  19842-3 0  9990,2 49771  53.2155 212.4364 0001324  70.5699 289.5436 15.08841903124259,6917.875,95.437,540.655,538.824,0.0
49771.0,STARLINK-3201,PAYLOAD,2024-03-01 16:30:47,15.08845302,0.0001355,53.2159,212.1387,87.8989,272.2158,0.00023694,3.486e-05,0.0,0 STARLINK-3201,1 49771U 21115AZ  24061.68804983  .00003486  00000-0  23694-3 0  9995,2 49771  53.2159 212.1387 0001355  87.8989 272.2158 15.08845302125373,6917.864,95.437,540.667,538.792,0.0
49771.0,STARLINK-3201,PAYLOAD,2024-03-02 14:46:11,15.08843184,0.0001487,53.217,207.9746,93.5321,266.5842,0.00014332,1.994e-05,0.0,0 STARLINK-3201,1 49771U 21115AZ  24062.61541124  .00001994  00000-0  14332-3 0  9995,2 49771  53.2170 207.9746 0001487  93.5321 266.5842 15.08843184124402,6917.871,95.437,540.764,538.707,0.0
49771.0,STARLINK-3201,PAYLOAD,2024-03-03 14:36:58,15.08847617,0.0001487,53.2169,203.5148,92.4009,267.7154,0.00024941,3.684e-05,0.0,0 STARLINK-3201,1 49771U 21115AZ  24063.60900954  .00003684  00000-0  24941-3 0  9990,2 49771  53.2169 203.5148 0001487  92.4009 267.7154 15.08847617124559,6917.857,95.437,540.751,538.693,0.0
49771.0,STARLINK-3201,PAYLOAD,2024-03-03 16:12:21,15.08849607,0.0001515,53.2167,203.2163,94.8239,265.2926,0.00028051,4.18e-05,0.0,0 STARLINK-3201,1 49771U 21115AZ  24063.67524830  .00004180  00000-0  28051-3 0  9990,2 49771  53.2167 203.2163 0001515  94.8239 265.2926 15.08849607125679,6917.851,95.437,540.764,538.668,0.0
49771.0,STARLINK-3201,PAYLOAD,2024-03-04 14:27:44,15.08856169,0.0001619,53.2168,199.0597,109.2389,250.8778,0.00025127,3.715e-05,0.0,0 STARLINK-3201,1 49771U 21115AZ  24064.60259910  .00003715  00000-0  25127-3 0  9992,2 49771  53.2168 199.0597 0001619 109.2389 250.8778 15.08856169124704,6917.831,95.437,540.816,538.576,0.0
49771.0,STARLINK-3201,PAYLOAD,2024-03-04 16:03:07,15.08855829,0.0001545,53.2164,198.7608,104.2918,255.8246,0.00023407,3.441e-05,0.0,0 STARLINK-3201,1 49771U 21115AZ  24064.66883872  .00003441  00000-0  23407-3 0  9993,2 49771  53.2164 198.7608 0001545 104.2918 255.8246 15.08855829124718,6917.832,95.437,540.766,538.628,0.0
49771.0,STARLINK-3201,PAYLOAD,2024-03-05 14:18:32,15.08827897,0.0001257,53.2146,194.5934,81.1112,279.0022,-0.00024495,-4.183e-05,0.0,0 STARLINK-3201,1 49771U 21115AZ  24065.59621185 -.00004183  00000-0 -24495-3 0  9997,2 49771  53.2146 194.5934 0001257  81.1112 279.0022 15.08827897124852,6917.917,95.438,540.652,538.913,0.0
49771.0,STARLINK-3201,PAYLOAD,2024-03-05 15:53:55,15.0882675,0.0001359,53.2152,194.2965,77.6691,282.4453,-0.00024644,-4.206e-05,0.0,0 STARLINK-3201,1 49771U 21115AZ  24065.66245315 -.00004206  00000-0 -24644-3 0  9994,2 49771  53.2152 194.2965 0001359  77.6691 282.4453 15.08826750125972,6917.921,95.438,540.726,538.846,0.0
49771.0,STARLINK-3201,PAYLOAD,2024-03-06 07:47:47,15.08835758,0.0001628,53.2174,191.3233,97.4754,262.6423,2.7672e-05,1.52e-06,0.0,0 STARLINK-3201,1 49771U 21115AZ  24066.32485331  .00000152  00000-0  27672-4 0  9991,2 49771  53.2174 191.3233 0001628  97.4754 262.6423 15.08835758126078,6917.893,95.438,540.885,538.632,0.0
49771.0,STARLINK-3201,PAYLOAD,2024-03-06 14:09:19,15.08844584,0.0001563,53.2167,190.1349,98.2877,261.8293,0.0004761,7.298e-05,0.0,0 STARLINK-3201,1 49771U 21115AZ  24066.58981302  .00007298  00000-0  47610-3 0  9999,2 49771  53.2167 190.1349 0001563  98.2877 261.8293 15.08844584125003,6917.866,95.437,540.813,538.65,0.0
49771.0,STARLINK-3201,PAYLOAD,2024-03-06 15:44:43,15.08850354,0.0001368,53.2155,189.837,97.3726,262.7421,0.0010086,0.00015805,0.0,0 STARLINK-3201,1 49771U 21115AZ  24066.65605420  .00015805  00000-0  10086-2 0  9990,2 49771  53.2155 189.8370 0001368  97.3726 262.7421 15.08850354126124,6917.849,95.437,540.66,538.767,0.0
49771.0,STARLINK-3201,PAYLOAD,2024-03-07 01:17:01,15.08844406,0.0001434,53.2156,188.0504,85.9173,274.1983,0.00040538,6.17e-05,0.0,0 STARLINK-3201,1 49771U 21115AZ  24067.05349526  .00006170  00000-0  40538-3 0  9998,2 49771  53.2156 188.0504 0001434  85.9173 274.1983 15.08844406126185,6917.867,95.437,540.724,538.74,0.0
49771.0,STARLINK-3201,PAYLOAD,2024-03-07 14:00:07,15.08843329,0.0001388,53.2148,185.6736,82.8395,277.2755,0.0005222,8.033e-05,0.0,0 STARLINK-3201,1 49771U 21115AZ  24067.58341816  .00008033  00000-0  52220-3 0  9991,2 49771  53.2148 185.6736 0001388  82.8395 277.2755 15.08843329125156,6917.87,95.437,540.695,538.775,0.0
49771.0,STARLINK-3201,PAYLOAD,2024-03-08 13:50:54,15.08862912,0.0001429,53.2162,181.2129,82.0412,278.0742,0.0012704,0.00020001,0.0,0 STARLINK-3201,1 49771U 21115AZ  24068.57701510  .00020001  00000-0  12704-2 0  9993,2 49771  53.2162 181.2129 0001429  82.0412 278.0742 15.08862912125309,6917.81,95.436,540.664,538.687,0.0
49771.0,STARLINK-3201,PAYLOAD,2024-03-08 20:12:26,15.08878047,0.000156,53.217,180.0237,81.5009,278.616,0.0012862,0.00020262,0.0,0 STARLINK-3201,1 49771U 21115AZ  24068.84196868  .00020262  00000-0  12862-2 0  9991,2 49771  53.2170 180.0237 0001560  81.5009 278.6160 15.08878047125347,6917.764,95.435,540.708,538.55,0.0
49771.0,STARLINK-3201,PAYLOAD,2024-03-09 00:58:35,15.08831679,0.0001773,53.2172,179.1288,105.1464,254.9724,-0.00034426,-5.762e-05,0.0,0 STARLINK-3201,1 49771U 21115AZ  24069.04069396 -.00005762  00000-0 -34426-3 0  9990,2 49771  53.2172 179.1288 0001773 105.1464 254.9724 15.08831679126487,6917.906,95.438,540.997,538.544,0.0
49771.0,STARLINK-3201,PAYLOAD,2024-03-09 12:06:18,15.0884546,0.0001521,53.2161,177.0497,92.7497,267.3669,0.0017992,0.00028467,0.0,0 STARLINK-3201,1 49771U 21115AZ  24069.50437544  .00028467  00000-0  17992-2 0  9998,2 49771  53.2161 177.0497 0001521  92.7497 267.3669 15.08845460126559,6917.864,95.437,540.781,538.676,0.0
49771.0,STARLINK-3201,PAYLOAD,2024-03-09 13:41:41,15.08843695,0.0001584,53.2162,176.7525,93.1512,266.9661,0.0017635,0.00027892,0.0,0 STARLINK-3201,1 49771U 21115AZ  24069.57061564  .00027892  00000-0  17635-2 0  9995,2 49771  53.2162 176.7525 0001584  93.1512 266.9661 15.08843695125453,6917.869,95.437,540.83,538.638,0.0
49771.0,STARLINK-3201,PAYLOAD,2024-03-09 16:52:27,15.08850431,0.000158,53.2167,176.1573,92.9427,267.1746,0.0019232,0.00030461,0.0,0 STARLINK-3201,1 49771U 21115AZ  24069.70309510  .00030461  00000-0  19232-2 0  9997,2 49771  53.2167 176.1573 0001580  92.9427 267.1746 15.08850431125478,6917.849,95.437,540.807,538.62,0.0
49771.0,STARLINK-3201,PAYLOAD,2024-03-10 11:57:05,15.08839499,0.0001291,53.2171,172.5889,104.3594,255.7542,0.0013725,0.00021622,0.0,0 STARLINK-3201,1 49771U 21115AZ  24070.49798297  .00021622  00000-0  13725-2 0  9999,2 49771  53.2171 172.5889 0001291 104.3594 255.7542 15.08839499126700,6917.882,95.438,540.64,538.854,0.0
49771.0,STARLINK-3201,PAYLOAD,2024-03-10 13:32:28,15.08838656,0.0001181,53.2171,172.2924,86.7099,273.4028,0.0013594,0.00021412,0.0,0 STARLINK-3201,1 49771U 21115AZ  24070.56422400  .00021412  00000-0  13594-2 0  9998,2 49771  53.2171 172.2924 0001181  86.7099 273.4028 15.08838656125606,6917.884,95.438,540.566,538.932,0.0
49771.0,STARLINK-3201,PAYLOAD,2024-03-11 13:23:15,15.08884672,0.0001157,53.2165,167.8313,76.5119,283.6002,0.0022452,0.00035669,0.0,0 STARLINK-3201,1 49771U 21115AZ  24071.55781748  .00035669  00000-0  22452-2 0  9993,2 49771  53.2165 167.8313 0001157  76.5119 283.6002 15.08884672126867,6917.744,95.435,540.409,538.808,0.0
49771.0,STARLINK-3201,PAYLOAD,2024-03-12 13:14:01,15.08838352,0.0001228,53.2161,163.3718,85.9518,274.1614,-0.00094501,-0.00015295,0.0,0 STARLINK-3201,1 49771U 21115AZ  24072.55140296 -.00015295  00000-0 -94501-3 0  9991,2 49771  53.2161 163.3718 0001228  85.9518 274.1614 15.08838352127015,6917.885,95.438,540.6,538.901,0.0
